{"type": "FeatureCollection", "features": [ {"type": "Feature", "properties": {"norad_id": 45358, "name": "COSMOS 2545 (760)", "group": "gnss", "lat": -64.2888983568914, "lon": -138.4410711848901, "alt_km": 19108.284635187112, "timestamp": "2025-12-20T07:33:51.056933+00:00", "meta": {"OBJECT_NAME": "COSMOS 2545 (760)", "OBJECT_ID": "2020-018A", "EPOCH": "2025-12-19T00:41:16.420128", "MEAN_MOTION": 2.13102611, "ECCENTRICITY": 0.0011548, "INCLINATION": 64.4657, "RA_OF_ASC_NODE": 318.7488, "ARG_OF_PERICENTER": 249.6698, "MEAN_ANOMALY": 110.1972, "EPHEMERIS_TYPE": 0, "CLASSIFICATION_TYPE": "U", "NORAD_CAT_ID": 45358, "ELEMENT_SET_NO": 999, "REV_AT_EPOCH": 4482, "BSTAR": 0, "MEAN_MOTION_DOT": -6.1e-07, "MEAN_MOTION_DDOT": 0}, "tle": {"line1": "1 45358U 20018A   25353.02866227 -.00000061  00000+0  00000+0 0  9993", "line2": "2 45358  64.4657 318.7488 0011548 249.6698 110.1972  2.13102611 44827"}}, "geometry": {"type": "Point", "coordinates": [-138.4410711848901, -64.2888983568914]}}, {"type": "Feature", "properties": {"norad_id": 45807, "name": "BEIDOU-3 G3 (C61)", "group": "gnss", "lat": -1.8612087893522038, "lon": -46.894497793760394, "alt_km": 35774.42977390443, "timestamp": "2025-12-20T07:33:51.056944+00:00", "meta": {"OBJECT_NAME": "BEIDOU-3 G3 (C61)", "OBJECT_ID": "2020-040A", "EPOCH": "2025-12-19T15:57:04.317984", "MEAN_MOTION": 1.0027087, "ECCENTRICITY": 0.00064381, "INCLINATION": 2.0073, "RA_OF_ASC_NODE": 66.6426, "ARG_OF_PERICENTER": 309.3483, "MEAN_ANOMALY": 62.3662, "EPHEMERIS_TYPE": 0, "CLASSIFICATION_TYPE": "U", "NORAD_CAT_ID": 45807, "ELEMENT_SET_NO": 999, "REV_AT_EPOCH": 2027, "BSTAR": 0, "MEAN_MOTION_DOT": -3.31e-06, "MEAN_MOTION_DDOT": 0}, "tle": {"line1": "1 45807U 20040A   25353.66463331 -.00000331  00000+0  00000+0 0  9996", "line2": "2 45807   2.0073  66.6426 0006438 309.3483  62.3662  1.00270870 20270"}}, "geometry": {"type": "Point", "coordinates": [-46.894497793760394, -1.8612087893522038]}}, {"type": "Feature", "properties": {"norad_id": 45854, "name": "GPS BIII-3  (PRN 23)", "group": "gnss", "lat": 42.336423068982135, "lon": 72.91552546912558, "alt_km": 20316.529797066687, "timestamp": "2025-12-20T07:33:51.056958+00:00", "meta": {"OBJECT_NAME": "GPS BIII-3  (PRN 23)", "OBJECT_ID": "2020-041A", "EPOCH": "2025-12-19T05:46:39.794304", "MEAN_MOTION": 2.00561972, "ECCENTRICITY": 0.006061, "INCLINATION": 56.5512, "RA_OF_ASC_NODE": 35.9326, "ARG_OF_PERICENTER": 203.6529, "MEAN_ANOMALY": 154.7875, "EPHEMERIS_TYPE": 0, "CLASSIFICATION_TYPE": "U", "NORAD_CAT_ID": 45854, "ELEMENT_SET_NO": 999, "REV_AT_EPOCH": 4042, "BSTAR": 0, "MEAN_MOTION_DOT": -6.4e-07, "MEAN_MOTION_DDOT": 0}, "tle": {"line1": "1 45854U 20041A   25353.24073836 -.00000064  00000+0  00000+0 0  9993", "line2": "2 45854  56.5512  35.9326 0060610 203.6529 154.7875  2.00561972 40429"}}, "geometry": {"type": "Point", "coordinates": [72.91552546912558, 42.336423068982135]}}, {"type": "Feature", "properties": {"norad_id": 46114, "name": "GALAXY 30 (WAAS/PRN 135)", "group": "gnss", "lat": 0.026669854707808298, "lon": 77.62645228579547, "alt_km": 35794.01113006998, "timestamp": "2025-12-20T07:33:51.057029+00:00", "meta": {"OBJECT_NAME": "GALAXY 30 (WAAS/PRN 135)", "OBJECT_ID": "2020-056C", "EPOCH": "2025-12-19T13:12:02.202336", "MEAN_MOTION": 1.00273015, "ECCENTRICITY": 0.0002025, "INCLINATION": 0.0093, "RA_OF_ASC_NODE": 38.0786, "ARG_OF_PERICENTER": 233.5866, "MEAN_ANOMALY": 249.7539, "EPHEMERIS_TYPE": 0, "CLASSIFICATION_TYPE": "U", "NORAD_CAT_ID": 46114, "ELEMENT_SET_NO": 999, "REV_AT_EPOCH": 1949, "BSTAR": 0, "MEAN_MOTION_DOT": 6.1e-07, "MEAN_MOTION_DDOT": 0}, "tle": {"line1": "1 46114U 20056C   25353.55002549  .00000061  00000+0  00000+0 0  9992", "line2": "2 46114   0.0093  38.0786 0002025 233.5866 249.7539  1.00273015 19495"}}, "geometry": {"type": "Point", "coordinates": [77.62645228579547, 0.026669854707808298]}}, {"type": "Feature", "properties": {"norad_id": 46805, "name": "COSMOS 2547 (705K)", "group": "gnss", "lat": 49.58400880093466, "lon": -15.493205286262372, "alt_km": 19128.538726241077, "timestamp": "2025-12-20T07:33:51.057043+00:00", "meta": {"OBJECT_NAME": "COSMOS 2547 (705K)", "OBJECT_ID": "2020-075A", "EPOCH": "2025-12-19T05:12:13.762080", "MEAN_MOTION": 2.13100175, "ECCENTRICITY": 0.0006125, "INCLINATION": 64.5965, "RA_OF_ASC_NODE": 198.4802, "ARG_OF_PERICENTER": 227.9307, "MEAN_ANOMALY": 132.0972, "EPHEMERIS_TYPE": 0, "CLASSIFICATION_TYPE": "U", "NORAD_CAT_ID": 46805, "ELEMENT_SET_NO": 999, "REV_AT_EPOCH": 4007, "BSTAR": 0, "MEAN_MOTION_DOT": 1.06e-06, "MEAN_MOTION_DDOT": 0}, "tle": {"line1": "1 46805U 20075A   25353.21682595  .00000106  00000+0  00000+0 0  9998", "line2": "2 46805  64.5965 198.4802 0006125 227.9307 132.0972  2.13100175 40071"}}, "geometry": {"type": "Point", "coordinates": [-15.493205286262372, 49.58400880093466]}}, {"type": "Feature", "properties": {"norad_id": 46826, "name": "GPS BIII-4  (PRN 14)", "group": "gnss", "lat": 20.224659686507227, "lon": -126.42866315243923, "alt_km": 20351.73913643845, "timestamp": "2025-12-20T07:33:51.057055+00:00", "meta": {"OBJECT_NAME": "GPS BIII-4  (PRN 14)", "OBJECT_ID": "2020-078A", "EPOCH": "2025-12-16T01:06:13.902336", "MEAN_MOTION": 2.00566891, "ECCENTRICITY": 0.0064755, "INCLINATION": 54.0145, "RA_OF_ASC_NODE": 218.2068, "ARG_OF_PERICENTER": 203.3828, "MEAN_ANOMALY": 339.3936, "EPHEMERIS_TYPE": 0, "CLASSIFICATION_TYPE": "U", "NORAD_CAT_ID": 46826, "ELEMENT_SET_NO": 999, "REV_AT_EPOCH": 3783, "BSTAR": 0, "MEAN_MOTION_DOT": 6.7e-07, "MEAN_MOTION_DDOT": 0}, "tle": {"line1": "1 46826U 20078A   25350.04599424  .00000067  00000+0  00000+0 0  9996", "line2": "2 46826  54.0145 218.2068 0064755 203.3828 339.3936  2.00566891 37831"}}, "geometry": {"type": "Point", "coordinates": [-126.42866315243923, 20.224659686507227]}}, {"type": "Feature", "properties": {"norad_id": 48859, "name": "GPS BIII-5  (PRN 11)", "group": "gnss", "lat": -24.46493144470674, "lon": 178.0450673129784, "alt_km": 20126.24156191185, "timestamp": "2025-12-20T07:33:51.057066+00:00", "meta": {"OBJECT_NAME": "GPS BIII-5  (PRN 11)", "OBJECT_ID": "2021-054A", "EPOCH": "2025-12-08T04:14:32.423424", "MEAN_MOTION": 2.00553627, "ECCENTRICITY": 0.0024678, "INCLINATION": 55.2581, "RA_OF_ASC_NODE": 340.1367, "ARG_OF_PERICENTER": 233.3994, "MEAN_ANOMALY": 212.8593, "EPHEMERIS_TYPE": 0, "CLASSIFICATION_TYPE": "U", "NORAD_CAT_ID": 48859, "ELEMENT_SET_NO": 999, "REV_AT_EPOCH": 3292, "BSTAR": 0, "MEAN_MOTION_DOT": -8.6e-07, "MEAN_MOTION_DDOT": 0}, "tle": {"line1": "1 48859U 21054A   25342.17676416 -.00000086  00000+0  00000+0 0  9993", "line2": "2 48859  55.2581 340.1367 0024678 233.3994 212.8593  2.00553627 32922"}}, "geometry": {"type": "Point", "coordinates": [178.0450673129784, -24.46493144470674]}}, {"type": "Feature", "properties": {"norad_id": 49336, "name": "QZS-1R (QZSS/PRN 196)", "group": "gnss", "lat": -35.03658944397974, "lon": -29.927216169889526, "alt_km": 32772.32379852463, "timestamp": "2025-12-20T07:33:51.057081+00:00", "meta": {"OBJECT_NAME": "QZS-1R (QZSS/PRN 196)", "OBJECT_ID": "2021-096A", "EPOCH": "2025-12-18T14:04:25.772160", "MEAN_MOTION": 1.00255833, "ECCENTRICITY": 0.07566602, "INCLINATION": 37.0895, "RA_OF_ASC_NODE": 82.273, "ARG_OF_PERICENTER": 271.433, "MEAN_ANOMALY": 79.2664, "EPHEMERIS_TYPE": 0, "CLASSIFICATION_TYPE": "U", "NORAD_CAT_ID": 49336, "ELEMENT_SET_NO": 999, "REV_AT_EPOCH": 1519, "BSTAR": 0, "MEAN_MOTION_DOT": -2.72e-06, "MEAN_MOTION_DDOT": 0}, "tle": {"line1": "1 49336U 21096A   25352.58640940 -.00000272  00000+0  00000+0 0  9996", "line2": "2 49336  37.0895  82.2730 0756660 271.4330  79.2664  1.00255833 15198"}}, "geometry": {"type": "Point", "coordinates": [-29.927216169889526, -35.03658944397974]}}, {"type": "Feature", "properties": {"norad_id": 49809, "name": "GSAT0223 (GALILEO 27)", "group": "gnss", "lat": 30.985313971359222, "lon": 143.72861855150117, "alt_km": 23223.218998325498, "timestamp": "2025-12-20T07:33:51.057093+00:00", "meta": {"OBJECT_NAME": "GSAT0223 (GALILEO 27)", "OBJECT_ID": "2021-116A", "EPOCH": "2025-12-19T11:56:47.637312", "MEAN_MOTION": 1.7047609, "ECCENTRICITY": 0.00044147, "INCLINATION": 57.2179, "RA_OF_ASC_NODE": 346.5305, "ARG_OF_PERICENTER": 254.6091, "MEAN_ANOMALY": 105.9777, "EPHEMERIS_TYPE": 0, "CLASSIFICATION_TYPE": "U", "NORAD_CAT_ID": 49809, "ELEMENT_SET_NO": 999, "REV_AT_EPOCH": 2512, "BSTAR": 0, "MEAN_MOTION_DOT": -7.2e-07, "MEAN_MOTION_DDOT": 0}, "tle": {"line1": "1 49809U 21116A   25353.49777358 -.00000072  00000+0  00000+0 0  9997", "line2": "2 49809  57.2179 346.5305 0004414 254.6091 105.9777  1.70476090 25129"}}, "geometry": {"type": "Point", "coordinates": [143.72861855150117, 30.985313971359222]}}, {"type": "Feature", "properties": {"norad_id": 49810, "name": "GSAT0224 (GALILEO 28)", "group": "gnss", "lat": -54.22838439362835, "lon": -130.0477897645111, "alt_km": 23216.659697059837, "timestamp": "2025-12-20T07:33:51.057105+00:00", "meta": {"OBJECT_NAME": "GSAT0224 (GALILEO 28)", "OBJECT_ID": "2021-116B", "EPOCH": "2025-12-18T10:12:29.028672", "MEAN_MOTION": 1.70476126, "ECCENTRICITY": 0.00037733, "INCLINATION": 57.2191, "RA_OF_ASC_NODE": 346.558, "ARG_OF_PERICENTER": 258.3671, "MEAN_ANOMALY": 276.634, "EPHEMERIS_TYPE": 0, "CLASSIFICATION_TYPE": "U", "NORAD_CAT_ID": 49810, "ELEMENT_SET_NO": 999, "REV_AT_EPOCH": 2512, "BSTAR": 0, "MEAN_MOTION_DOT": -7.5e-07, "MEAN_MOTION_DDOT": 0}, "tle": {"line1": "1 49810U 21116B   25352.42533598 -.00000075  00000+0  00000+0 0  9990", "line2": "2 49810  57.2191 346.5580 0003773 258.3671 276.6340  1.70476126 25124"}}, "geometry": {"type": "Point", "coordinates": [-130.0477897645111, -54.22838439362835]}}]}